CCSDS_OMM_VERS = 2.0
CREATION_DATE  = 
ORIGINATOR     = 

OBJECT_NAME    = SL-16 R/B
OBJECT_ID      = 1998-043G
CENTER_NAME    = EARTH
REF_FRAME      = TEME
TIME_SYSTEM    = UTC
MEAN_ELEMENT_THEORY = SGP/SGP4

EPOCH          = 2026-01-14T20:18:00.080928
MEAN_MOTION    = 14.26034474
ECCENTRICITY   = .0010022
INCLINATION    = 98.8168
RA_OF_ASC_NODE = 327.8570
ARG_OF_PERICENTER = 164.6631
MEAN_ANOMALY   = 195.4853

EPHEMERIS_TYPE = 0
CLASSIFICATION_TYPE = U
NORAD_CAT_ID   = 25400
ELEMENT_SET_NO = 999
REV_AT_EPOCH   = 43131
BSTAR          = .28631E-4
MEAN_MOTION_DOT = .23E-6
MEAN_MOTION_DDOT = 0

CCSDS_OMM_VERS = 2.0
CREATION_DATE  = 
ORIGINATOR     = 

OBJECT_NAME    = SL-16 R/B
OBJECT_ID      = 1998-045B
CENTER_NAME    = EARTH
REF_FRAME      = TEME
TIME_SYSTEM    = UTC
MEAN_ELEMENT_THEORY = SGP/SGP4

EPOCH          = 2026-01-15T04:11:12.708960
MEAN_MOTION    = 14.16180312
ECCENTRICITY   = .0005322
INCLINATION    = 71.0119
RA_OF_ASC_NODE = 294.1151
ARG_OF_PERICENTER = 115.2414
MEAN_ANOMALY   = 244.9262

EPHEMERIS_TYPE = 0
CLASSIFICATION_TYPE = U
NORAD_CAT_ID   = 25407
ELEMENT_SET_NO = 999
REV_AT_EPOCH   = 41952
BSTAR          = .739E-4
MEAN_MOTION_DOT = .99E-6
MEAN_MOTION_DDOT = 0

CCSDS_OMM_VERS = 2.0
CREATION_DATE  = 
ORIGINATOR     = 

OBJECT_NAME    = ISS (ZARYA)
OBJECT_ID      = 1998-067A
CENTER_NAME    = EARTH
REF_FRAME      = TEME
TIME_SYSTEM    = UTC
MEAN_ELEMENT_THEORY = SGP/SGP4

EPOCH          = 2026-01-15T06:33:14.524992
MEAN_MOTION    = 15.49304898
ECCENTRICITY   = .0007764
INCLINATION    = 51.6333
RA_OF_ASC_NODE = 336.4632
ARG_OF_PERICENTER = 20.7339
MEAN_ANOMALY   = 339.3963

EPHEMERIS_TYPE = 0
CLASSIFICATION_TYPE = U
NORAD_CAT_ID   = 25544
ELEMENT_SET_NO = 999
REV_AT_EPOCH   = 54805
BSTAR          = .16988E-3
MEAN_MOTION_DOT = .9025E-4
MEAN_MOTION_DDOT = 0

CCSDS_OMM_VERS = 2.0
CREATION_DATE  = 
ORIGINATOR     = 

OBJECT_NAME    = CZ-4B R/B
OBJECT_ID      = 1999-025C
CENTER_NAME    = EARTH
REF_FRAME      = TEME
TIME_SYSTEM    = UTC
MEAN_ELEMENT_THEORY = SGP/SGP4

EPOCH          = 2026-01-15T02:50:51.616608
MEAN_MOTION    = 14.18252278
ECCENTRICITY   = .0037866
INCLINATION    = 98.6725
RA_OF_ASC_NODE = 60.6446
ARG_OF_PERICENTER = 137.9188
MEAN_ANOMALY   = 281.5184

EPHEMERIS_TYPE = 0
CLASSIFICATION_TYPE = U
NORAD_CAT_ID   = 25732
ELEMENT_SET_NO = 999
REV_AT_EPOCH   = 38057
BSTAR          = .32883E-4
MEAN_MOTION_DOT = .25E-6
MEAN_MOTION_DDOT = 0

CCSDS_OMM_VERS = 2.0
CREATION_DATE  = 
ORIGINATOR     = 

OBJECT_NAME    = OKEAN-O
OBJECT_ID      = 1999-039A
CENTER_NAME    = EARTH
REF_FRAME      = TEME
TIME_SYSTEM    = UTC
MEAN_ELEMENT_THEORY = SGP/SGP4

EPOCH          = 2026-01-15T02:47:26.324160
MEAN_MOTION    = 14.80227057
ECCENTRICITY   = .0001693
INCLINATION    = 97.9553
RA_OF_ASC_NODE = 75.5220
ARG_OF_PERICENTER = 107.6818
MEAN_ANOMALY   = 252.4578

EPHEMERIS_TYPE = 0
CLASSIFICATION_TYPE = U
NORAD_CAT_ID   = 25860
ELEMENT_SET_NO = 999
REV_AT_EPOCH   = 42646
BSTAR          = .67813E-4
MEAN_MOTION_DOT = .463E-5
MEAN_MOTION_DDOT = 0

CCSDS_OMM_VERS = 2.0
CREATION_DATE  = 
ORIGINATOR     = 

OBJECT_NAME    = SL-16 R/B
OBJECT_ID      = 1999-039B
CENTER_NAME    = EARTH
REF_FRAME      = TEME
TIME_SYSTEM    = UTC
MEAN_ELEMENT_THEORY = SGP/SGP4

EPOCH          = 2026-01-15T03:31:35.155488
MEAN_MOTION    = 14.81641121
ECCENTRICITY   = .0016092
INCLINATION    = 98.0076
RA_OF_ASC_NODE = 74.2927
ARG_OF_PERICENTER = 72.9895
MEAN_ANOMALY   = 287.3079

EPHEMERIS_TYPE = 0
CLASSIFICATION_TYPE = U
NORAD_CAT_ID   = 25861
ELEMENT_SET_NO = 999
REV_AT_EPOCH   = 42893
BSTAR          = .52128E-4
MEAN_MOTION_DOT = .357E-5
MEAN_MOTION_DDOT = 0

CCSDS_OMM_VERS = 2.0
CREATION_DATE  = 
ORIGINATOR     = 

OBJECT_NAME    = DELTA 2 R/B
OBJECT_ID      = 1999-041E
CENTER_NAME    = EARTH
REF_FRAME      = TEME
TIME_SYSTEM    = UTC
MEAN_ELEMENT_THEORY = SGP/SGP4

EPOCH          = 2026-01-15T09:59:52.826496
MEAN_MOTION    = 14.11553338
ECCENTRICITY   = .0503591
INCLINATION    = 51.7612
RA_OF_ASC_NODE = 154.0002
ARG_OF_PERICENTER = 191.0477
MEAN_ANOMALY   = 167.9054

EPHEMERIS_TYPE = 0
CLASSIFICATION_TYPE = U
NORAD_CAT_ID   = 25876
ELEMENT_SET_NO = 999
REV_AT_EPOCH   = 35550
BSTAR          = .36789E-3
MEAN_MOTION_DOT = .2052E-4
MEAN_MOTION_DDOT = 0

CCSDS_OMM_VERS = 2.0
CREATION_DATE  = 
ORIGINATOR     = 

OBJECT_NAME    = HELIOS 1B
OBJECT_ID      = 1999-064A
CENTER_NAME    = EARTH
REF_FRAME      = TEME
TIME_SYSTEM    = UTC
MEAN_ELEMENT_THEORY = SGP/SGP4

EPOCH          = 2026-01-15T04:06:53.121888
MEAN_MOTION    = 14.87438243
ECCENTRICITY   = .0000614
INCLINATION    = 98.1747
RA_OF_ASC_NODE = 275.8304
ARG_OF_PERICENTER = 133.8853
MEAN_ANOMALY   = 226.2413

EPHEMERIS_TYPE = 0
CLASSIFICATION_TYPE = U
NORAD_CAT_ID   = 25977
ELEMENT_SET_NO = 999
REV_AT_EPOCH   = 67730
BSTAR          = .13217E-3
MEAN_MOTION_DOT = .1138E-4
MEAN_MOTION_DDOT = 0

CCSDS_OMM_VERS = 2.0
CREATION_DATE  = 
ORIGINATOR     = 

OBJECT_NAME    = TERRA
OBJECT_ID      = 1999-068A
CENTER_NAME    = EARTH
REF_FRAME      = TEME
TIME_SYSTEM    = UTC
MEAN_ELEMENT_THEORY = SGP/SGP4

EPOCH          = 2026-01-15T03:50:49.155360
MEAN_MOTION    = 14.60944265
ECCENTRICITY   = .0002353
INCLINATION    = 97.9700
RA_OF_ASC_NODE = 70.6104
ARG_OF_PERICENTER = 23.6847
MEAN_ANOMALY   = 51.4374

EPHEMERIS_TYPE = 0
CLASSIFICATION_TYPE = U
NORAD_CAT_ID   = 25994
ELEMENT_SET_NO = 999
REV_AT_EPOCH   = 38726
BSTAR          = .67244E-4
MEAN_MOTION_DOT = .285E-5
MEAN_MOTION_DDOT = 0

CCSDS_OMM_VERS = 2.0
CREATION_DATE  = 
ORIGINATOR     = 

OBJECT_NAME    = SL-16 R/B
OBJECT_ID      = 2000-006B
CENTER_NAME    = EARTH
REF_FRAME      = TEME
TIME_SYSTEM    = UTC
MEAN_ELEMENT_THEORY = SGP/SGP4

EPOCH          = 2026-01-15T12:42:00.870336
MEAN_MOTION    = 14.15813479
ECCENTRICITY   = .0018942
INCLINATION    = 71.0003
RA_OF_ASC_NODE = 209.6123
ARG_OF_PERICENTER = 263.3505
MEAN_ANOMALY   = 96.5462

EPHEMERIS_TYPE = 0
CLASSIFICATION_TYPE = U
NORAD_CAT_ID   = 26070
ELEMENT_SET_NO = 999
REV_AT_EPOCH   = 34103
BSTAR          = -.11152E-3
MEAN_MOTION_DOT = -.268E-5
MEAN_MOTION_DDOT = 0

CCSDS_OMM_VERS = 2.0
CREATION_DATE  = 
ORIGINATOR     = 

OBJECT_NAME    = TITAN 4B R/B
OBJECT_ID      = 2000-047B
CENTER_NAME    = EARTH
REF_FRAME      = TEME
TIME_SYSTEM    = UTC
MEAN_ELEMENT_THEORY = SGP/SGP4

EPOCH          = 2026-01-15T02:02:35.428128
MEAN_MOTION    = 15.09049816
ECCENTRICITY   = .0036996
INCLINATION    = 67.9873
RA_OF_ASC_NODE = 191.1853
ARG_OF_PERICENTER = 103.1782
MEAN_ANOMALY   = 257.3499

EPHEMERIS_TYPE = 0
CLASSIFICATION_TYPE = U
NORAD_CAT_ID   = 26474
ELEMENT_SET_NO = 999
REV_AT_EPOCH   = 38482
BSTAR          = .13371E-3
MEAN_MOTION_DOT = .2017E-4
MEAN_MOTION_DDOT = 0

CCSDS_OMM_VERS = 2.0
CREATION_DATE  = 
ORIGINATOR     = 

OBJECT_NAME    = ENVISAT
OBJECT_ID      = 2002-009A
CENTER_NAME    = EARTH
REF_FRAME      = TEME
TIME_SYSTEM    = UTC
MEAN_ELEMENT_THEORY = SGP/SGP4

EPOCH          = 2026-01-15T11:59:23.338752
MEAN_MOTION    = 14.39013344
ECCENTRICITY   = .0001166
INCLINATION    = 98.3644
RA_OF_ASC_NODE = 330.3927
ARG_OF_PERICENTER = 91.2094
MEAN_ANOMALY   = 20.6193

EPHEMERIS_TYPE = 0
CLASSIFICATION_TYPE = U
NORAD_CAT_ID   = 27386
ELEMENT_SET_NO = 999
REV_AT_EPOCH   = 25152
BSTAR          = .33967E-4
MEAN_MOTION_DOT = .62E-6
MEAN_MOTION_DDOT = 0

