SL-16 R/B               
1 25400U 98043G   26014.84583427  .00000023  00000+0  28631-4 0  9997
2 25400  98.8168 327.8570 0010022 164.6631 195.4853 14.26034474431319
SL-16 R/B               
1 25407U 98045B   26015.17445265  .00000099  00000+0  73900-4 0  9992
2 25407  71.0119 294.1151 0005322 115.2414 244.9262 14.16180312419529
ISS (ZARYA)             
1 25544U 98067A   26015.27308478  .00009025  00000+0  16988-3 0  9993
2 25544  51.6333 336.4632 0007764  20.7339 339.3963 15.49304898548057
CZ-4B R/B               
1 25732U 99025C   26015.11865297  .00000025  00000+0  32883-4 0  9991
2 25732  98.6725  60.6446 0037866 137.9188 281.5184 14.18252278380573
OKEAN-O                 
1 25860U 99039A   26015.11627690  .00000463  00000+0  67813-4 0  9998
2 25860  97.9553  75.5220 0001693 107.6818 252.4578 14.80227057426463
SL-16 R/B               
1 25861U 99039B   26015.14693467  .00000357  00000+0  52128-4 0  9992
2 25861  98.0076  74.2927 0016092  72.9895 287.3079 14.81641121428934
DELTA 2 R/B             
1 25876U 99041E   26015.41658364  .00002052  00000+0  36789-3 0  9996
2 25876  51.7612 154.0002 0503591 191.0477 167.9054 14.11553338355500
HELIOS 1B               
1 25977U 99064A   26015.17144817  .00001138  00000+0  13217-3 0  9994
2 25977  98.1747 275.8304 0000614 133.8853 226.2413 14.87438243677306
TERRA                   
1 25994U 99068A   26015.16029115  .00000285  00000+0  67244-4 0  9991
2 25994  97.9700  70.6104 0002353  23.6847  51.4374 14.60944265387265
SL-16 R/B               
1 26070U 00006B   26015.52917674 -.00000268  00000+0 -11152-3 0  9996
2 26070  71.0003 209.6123 0018942 263.3505  96.5462 14.15813479341035
TITAN 4B R/B            
1 26474U 00047B   26015.08513227  .00002017  00000+0  13371-3 0  9993
2 26474  67.9873 191.1853 0036996 103.1782 257.3499 15.09049816384825
ENVISAT                 
1 27386U 02009A   26015.49957568  .00000062  00000+0  33967-4 0  9993
2 27386  98.3644 330.3927 0001166  91.2094  20.6193 14.39013344251526
